OBJECT_NAME,OBJECT_ID,EPOCH,MEAN_MOTION,ECCENTRICITY,INCLINATION,RA_OF_ASC_NODE,ARG_OF_PERICENTER,MEAN_ANOMALY,EPHEMERIS_TYPE,CLASSIFICATION_TYPE,NORAD_CAT_ID,ELEMENT_SET_NO,REV_AT_EPOCH,BSTAR,MEAN_MOTION_DOT,MEAN_MOTION_DDOT
SPACEMOBILE-010,2026-139C,2026-06-22T16:34:08.285088,15.12774101,.00036829,52.9945,237.5815,357.3124,2.7846,0,U,69591,999,81,.13453224E-4,-.62E-6,0
KZ-11 R/B,2026-138H,2026-06-22T16:45:24.422112,15.15133178,.04865719,55.1525,257.2820,94.6968,270.9774,0,U,69628,999,80,.71504561E-3,.547597E-2,.9324463E-5
ZHUQUE-2E DEB,2026-128D,2026-06-22T19:37:04.735488,15.67686629,.00553007,54.5258,277.3533,334.6862,25.1465,0,U,69629,999,207,.24682694E-2,.308871E-2,0
ZHUQUE-2E DEB,2026-128E,2026-06-22T19:13:29.802432,15.58190425,.00771151,54.5301,277.7932,347.3385,12.5707,0,U,69630,999,205,.11965575E-3,.9997E-4,0
ZHUQUE-2E DEB,2026-128F,2026-06-22T18:53:29.494752,15.61333413,.00677642,54.5275,277.7910,339.1892,20.6384,0,U,69631,999,205,.13070155E-2,.128125E-2,0
ZHUQUE-2E DEB,2026-128G,2026-06-21T14:01:00.505632,15.99327153,.0075124,54.5174,281.6548,19.0306,341.3522,0,U,69632,999,190,.2592E-2,.1764121E-1,.18920475E-2
ZHUQUE-2E DEB,2026-128J,2026-06-22T20:25:12.522432,15.71179189,.00947401,54.5390,276.0696,18.5326,341.9122,0,U,69634,999,196,.20703295E-2,.346909E-2,.46846683E-4
ZHUQUE-2E DEB,2026-128K,2026-06-22T20:21:09.907776,15.75931134,.00927649,54.5358,276.2129,11.2197,349.0880,0,U,69635,999,164,.38704861E-2,.809896E-2,.23378773E-3
CENTISPACE-1 GROUP 05 OBJECT J,2026-138J,2026-06-22T18:56:35.844864,14.15865903,.00081979,55.1426,260.4581,289.8152,70.1938,0,U,69636,999,78,-.75625273E-4,-.303E-5,0
VICTUS HAZE PUMA,2026-142A,2026-06-22T21:00:39.667104,15.33552352,.00079201,97.3999,71.4164,30.0686,330.1010,0,U,69646,999,53,.16375767E-3,.5235E-4,0
ELECTRON R/B,2026-142B,2026-06-22T18:56:44.232576,15.97079263,.01695748,97.4383,71.5382,235.6889,122.8239,0,U,69647,999,54,.7142365E-3,.1579153E-1,.236126E-5
